XRISM                   
1 57800U 23137A   23301.74591463  .00006258  00000+0  50572-3 0  9996
2 57800  31.0045  48.8180 0010270  68.1693 292.0033 14.98379427  7760
